[{"OBJECT_NAME":"STARLINK-11502 [DTC]","OBJECT_ID":"2024-254N","EPOCH":"2026-03-09T10:43:05.685312","MEAN_MOTION":15.7097758,"ECCENTRICITY":0.00015555,"INCLINATION":42.9986,"RA_OF_ASC_NODE":224.383,"ARG_OF_PERICENTER":220.621,"MEAN_ANOMALY":139.4542,"EPHEMERIS_TYPE":0,"CLASSIFICATION_TYPE":"U","NORAD_CAT_ID":62474,"ELEMENT_SET_NO":999,"REV_AT_EPOCH":6936,"BSTAR":0.0018601376,"MEAN_MOTION_DOT":0.00246881,"MEAN_MOTION_DDOT":0},{"OBJECT_NAME":"COSMOS 921 DEB","OBJECT_ID":"1977-055C","EPOCH":"2026-03-09T22:42:10.805760","MEAN_MOTION":15.70063735,"ECCENTRICITY":0.00183564,"INCLINATION":75.8082,"RA_OF_ASC_NODE":161.9867,"ARG_OF_PERICENTER":333.9317,"MEAN_ANOMALY":26.0991,"EPHEMERIS_TYPE":0,"CLASSIFICATION_TYPE":"U","NORAD_CAT_ID":39690,"ELEMENT_SET_NO":999,"REV_AT_EPOCH":65481,"BSTAR":0.0010474937,"MEAN_MOTION_DOT":0.0012919,"MEAN_MOTION_DDOT":0}]
